{"type": "FeatureCollection", "features": [{"type": "Feature", "geometry": {"type": "Point", "coordinates": [30.2556348, 59.987678]}, "properties": {"osm_id": "node/91264384", "colour": "purple", "depth": "61", "int_name": "Staraya Derevnya", "layer": "-5", "name": "Старая Деревня", "name:en": "Staraya Derevnya", "name:ru": "Старая Деревня", "network": "Петербургский метрополитен", "opening_hours": "Mo-Su 05:38-00:39", "operator": "ГУП «Петербургский метрополитен»", "public_transport": "station", "railway": "station", "station": "subway", "subway": "yes", "wikidata": "Q2711531", "wikipedia": "ru:Старая Деревня (станция метро)"}}, {"type": "Feature", "geometry": {"type": "Point", "coordinates": [30.3009041, 59.9872268]}, "properties": {"osm_id": "node/96449579", "colour": "blue", "depth": "67", "int_name": "Chyornaya rechka", "layer": "-5", "name": "Чёрная речка", "name:en": "Chyornaya rechka", "name:ru": "Чёрная речка", "network": "Петербургский метрополитен", "network:wikipedia": "ru:Петербургский метрополитен", "operator": "ГУП «Петербургский метрополитен»", "public_transport": "station", "railway": "station", "station": "subway", "subway": "yes", "wheelchair": "yes", "wikidata": "Q82393", "wikipedia": "ru:Чёрная речка (станция метро)"}}, {"type": "Feature", "geometry": {"type": "Point", "coordinates": [30.2963479, 60.0043093]}, "properties": {"osm_id": "node/96453108", "colour": "blue", "depth": "67", "int_name": "Pionerskaya", "layer": "-5", "name": "Пионерская", "name:en": "Pionerskaya", "name:ru": "Пионерская", "network": "Петербургский метрополитен", "network:wikipedia": "ru:Петербургский метрополитен", "operator": "ГУП «Петербургский метрополитен»", "public_transport": "station", "railway": "station", "station": "subway", "subway": "yes", "wikidata": "Q748709", "wikipedia": "ru:Пионерская (станция метро, Санкт-Петербург)"}}, {"type": "Feature", "geometry": {"type": "Point", "coordinates": [30.2965184, 60.0023103]}, "properties": {"osm_id": "node/1132515960", "colour": "blue", "entrance": "entrance", "name": "Пионерская", "name:ru": "Пионерская", "network": "Петербургский метрополитен", "opening_hours": "05:45-00:35", "operator": "ГУП «Петербургский метрополитен»", "railway": "subway_entrance", "wheelchair": "yes"}}, {"type": "Feature", "geometry": {"type": "Point", "coordinates": [30.2584854, 60.0082429]}, "properties": {"osm_id": "node/1394248514", "colour": "purple", "entrance": "entrance", "name": "Комендантский проспект", "network": "Петербургский метрополитен", "operator": "ГУП «Петербургский метрополитен»", "railway": "subway_entrance", "ref": "4", "wheelchair": "yes"}}, {"type": "Feature", "geometry": {"type": "Point", "coordinates": [30.2592304, 60.0084659]}, "properties": {"osm_id": "node/1394248520", "colour": "purple", "entrance": "entrance", "name": "Комендантский проспект", "network": "Петербургский метрополитен", "operator": "ГУП «Петербургский метрополитен»", "railway": "subway_entrance", "ref": "3", "wheelchair": "yes"}}, {"type": "Feature", "geometry": {"type": "Point", "coordinates": [30.2580939, 60.0085694]}, "properties": {"osm_id": "node/1394248522", "colour": "purple", "entrance": "entrance", "name": "Комендантский проспект", "network": "Петербургский метрополитен", "operator": "ГУП «Петербургский метрополитен»", "railway": "subway_entrance", "ref": "2", "wheelchair": "yes"}}, {"type": "Feature", "geometry": {"type": "Point", "coordinates": [30.2588357, 60.0087953]}, "properties": {"osm_id": "node/1394248524", "colour": "purple", "entrance": "entrance", "name": "Комендантский проспект", "network": "Петербургский метрополитен", "operator": "ГУП «Петербургский метрополитен»", "railway": "subway_entrance", "ref": "1", "wheelchair": "yes"}}, {"type": "Feature", "geometry": {"type": "Point", "coordinates": [30.3011738, 59.9854357]}, "properties": {"osm_id": "node/1646568635", "colour": "blue", "entrance": "exit", "name": "Чёрная речка", "name:en": "Chyornaya rechka", "name:ru": "Чёрная речка", "network": "Петербургский метрополитен", "opening_hours": "Mo-Su 05:45-00:50", "operator": "ГУП «Петербургский метрополитен»", "railway": "subway_entrance"}}, {"type": "Feature", "geometry": {"type": "Point", "coordinates": [30.3007945, 59.9855993]}, "properties": {"osm_id": "node/1646568762", "check_date:opening_hours": "2021-10-13", "colour": "blue", "entrance": "entrance", "name": "Чёрная речка", "name:en": "Chyornaya rechka", "name:ru": "Чёрная речка", "network": "Петербургский метрополитен", "opening_hours": "Mo-Su 05:45-00:32", "operator": "ГУП «Петербургский метрополитен»", "railway": "subway_entrance", "wheelchair": "yes"}}, {"type": "Feature", "geometry": {"type": "Point", "coordinates": [30.2548193, 59.9895694]}, "properties": {"osm_id": "node/1669404531", "colour": "purple", "entrance": "entrance", "name": "Старая Деревня", "network": "Петербургский метрополитен", "opening_hours": "Mo-Su 05:38-00:39", "operator": "ГУП «Петербургский метрополитен»", "railway": "subway_entrance", "wheelchair": "yes"}}, {"type": "Feature", "geometry": {"type": "Point", "coordinates": [30.2555645, 59.989591]}, "properties": {"osm_id": "node/1669404539", "colour": "purple", "entrance": "exit", "name": "Старая Деревня", "network": "Петербургский метрополитен", "opening_hours": "Mo-Su 05:38-00:55", "operator": "ГУП «Петербургский метрополитен»", "railway": "subway_entrance"}}, {"type": "Feature", "geometry": {"type": "Point", "coordinates": [30.2963845, 60.0026646]}, "properties": {"osm_id": "node/1669412330", "colour": "blue", "entrance": "entrance", "name": "Пионерская", "name:ru": "Пионерская", "network": "Петербургский метрополитен", "opening_hours": "05:45-00:35", "operator": "ГУП «Петербургский метрополитен»", "railway": "subway_entrance", "wheelchair": "yes"}}, {"type": "Feature", "geometry": {"type": "Point", "coordinates": [30.2968938, 60.0024755]}, "properties": {"osm_id": "node/1669412333", "colour": "blue", "entrance": "exit", "name": "Пионерская", "name:ru": "Пионерская", "network": "Петербургский метрополитен", "opening_hours": "05:45-00:55", "operator": "ГУП «Петербургский метрополитен»", "railway": "subway_entrance"}}, {"type": "Feature", "geometry": {"type": "Point", "coordinates": [30.2585973, 60.0085291]}, "properties": {"osm_id": "node/2050425920", "colour": "purple", "entrance": "entrance", "layer": "-1", "name": "Комендантский проспект", "network": "Петербургский метрополитен", "opening_hours": "Mo-Su 05:35-00:03", "operator": "ГУП «Петербургский метрополитен»", "railway": "subway_entrance", "wheelchair": "yes"}}, {"type": "Feature", "geometry": {"type": "Point", "coordinates": [30.2585015, 60.0085202]}, "properties": {"osm_id": "node/2050425928", "colour": "purple", "entrance": "entrance", "layer": "-1", "name": "Комендантский проспект", "network": "Петербургский метрополитен", "opening_hours": "Mo-Su 05:35-00:03", "operator": "ГУП «Петербургский метрополитен»", "railway": "subway_entrance", "subway_entrance": "secondary_entrance", "wheelchair": "designated"}}, {"type": "Feature", "geometry": {"type": "Point", "coordinates": [30.2586302, 60.0085379]}, "properties": {"osm_id": "node/2050425933", "colour": "purple", "entrance": "exit", "layer": "-1", "name": "Комендантский проспект", "network": "Петербургский метрополитен", "opening_hours": "Mo-Su 05:35-01:00", "operator": "ГУП «Петербургский метрополитен»", "railway": "subway_entrance", "wheelchair": "yes"}}, {"type": "Feature", "geometry": {"type": "Point", "coordinates": [30.2021936, 59.9872661]}, "properties": {"osm_id": "node/5644650789", "colour": "green", "depth": "17", "int_name": "Begovaya", "internet_access": "wlan", "internet_access:fee": "no", "layer": "-5", "name": "Беговая", "name:en": "Begovaya", "name:ru": "Беговая", "network": "Петербургский метрополитен", "opening_hours": "Mo-Su 05:38-00:00", "operator": "ГУП «Петербургский метрополитен»", "public_transport": "station", "railway": "station", "start_date": "2018-05-26", "station": "subway", "subway": "yes", "wikidata": "Q4473867", "wikipedia": "ru:Беговая (станция метро, Санкт-Петербург)"}}, {"type": "Feature", "geometry": {"type": "Point", "coordinates": [30.2030798, 59.9882711]}, "properties": {"osm_id": "node/5647636715", "colour": "green", "entrance": "yes", "name": "Беговая", "name:en": "Begovaya", "name:ru": "Беговая", "network": "Петербургский метрополитен", "opening_hours": "Mo-Su 05:38-24:00", "operator": "ГУП «Петербургский метрополитен»", "railway": "subway_entrance", "ref": "2", "wheelchair": "yes"}}, {"type": "Feature", "geometry": {"type": "Point", "coordinates": [30.2022842, 59.9883671]}, "properties": {"osm_id": "node/5647636717", "colour": "green", "entrance": "yes", "name": "Беговая", "name:en": "Begovaya", "name:ru": "Беговая", "network": "Петербургский метрополитен", "opening_hours": "Mo-Su 05:38-24:00", "operator": "ГУП «Петербургский метрополитен»", "railway": "subway_entrance", "ref": "1", "wheelchair": "yes"}}, {"type": "Feature", "geometry": {"type": "Point", "coordinates": [30.2564847, 60.0103196]}, "properties": {"osm_id": "node/6242445475", "colour": "purple", "depth": "75", "int_name": "Komendantskiy prospekt", "layer": "-5", "name": "Комендантский проспект", "name:en": "Komendantskiy prospekt", "name:ru": "Комендантский проспект", "network": "Петербургский метрополитен", "opening_hours": "Mo-Su 05:35-00:03", "operator": "ГУП «Петербургский метрополитен»", "public_transport": "station", "railway": "station", "station": "subway", "subway": "yes", "wheelchair": "limited", "wikidata": "Q2566876", "wikipedia": "ru:Комендантский проспект (станция метро)"}}]}